IRIDIUM 921 [-]         
1 24873U 97034E   24034.89475347  .00022818  00000+0  75779-3 0  9995
2 24873  86.3871 354.1248 0007767  65.1217 295.0839 15.31065325454588
IRIDIUM 26 [-]          
1 24903U 97043A   24034.86958722  .00000579  00000+0  19202-3 0  9998
2 24903  86.3990 320.1376 0002025  83.4244 276.7183 14.36190409385053
DUMMY MASS 1 [-]        
1 24925U 97048A   24034.93073495  .00000643  00000+0  70345-4 0  9998
2 24925  86.3366   5.9977 0009132 109.0950 251.1264 14.86028175430967
DUMMY MASS 2 [-]        
1 24926U 97048B   24034.94559543  .00000626  00000+0  68796-4 0  9991
2 24926  86.3364   7.5093 0009743 117.9585 242.2627 14.85788010430754
IRIDIUM 29 [-]          
1 24944U 97051A   24034.93673504  .00000414  00000+0  13700-3 0  9997
2 24944  86.3992 353.1702 0002465  87.9039 272.2440 14.35541080381628
IRIDIUM 33 [-]          
1 24946U 97051C   24034.90967142  .00000422  00000+0  14361-3 0  9993
2 24946  86.3907 352.4447 0005715 267.5599  92.4942 14.34246431381161
IRIDIUM 28 [-]          
1 24948U 97051E   24034.95968370  .00000580  00000+0  19117-3 0  9993
2 24948  86.3999 350.9644 0001817  85.5861 274.5544 14.36486945382154
